id,ident,type,name,latitude_deg,longitude_deg,elevation_ft,continent,iso_country,iso_region,municipality,scheduled_service,gps_code,iata_code,local_code,home_link,wikipedia_link,keywords
43750,BE-0001,closed,Froidchapelle Glider Field,50.176388,4.352222,902.0,EU,BE,BE-WHT,Froidchapelle,no,,,,,,
43753,BE-0002,closed,Chimay-Virelles Ulmodrome,50.117778778,4.33055591583,919.0,EU,BE,BE-WHT,Chimay,no,,,,,,
43762,BE-0003,closed,Sovet Airfield,50.286944,5.038462,919.0,EU,BE,BE-WNA,Ciney,no,,,,,,
301715,BE-0004,heliport,Zomergem Heliport,51.131424,3.522277,66.0,EU,BE,BE-VOV,Zomergem,no,EBZM,,,,,
336984,BE-0006,heliport,Aalst Heliport,50.931377,4.087209,60.0,EU,BE,BE-VOV,Aalst,no,,,,,,"EBAL, EBLY"
312154,BE-0007,closed,Imelda Hospital Helipad,51.01767,4.55819,30.0,EU,BE,BE-VAN,Bonheiden,no,,,,,,
323796,BE-0008,heliport,Brecht/Vochten Heliport,51.332,4.62466,87.0,EU,BE,BE-VAN,Brecht,no,EBBV,,,,,
323798,BE-0009,closed,Jan Palfijn Hospital Heliport,51.048358,3.700268,,EU,BE,BE-VOV,Gent,no,,,,,,
323969,BE-0010,heliport,Lint Heliport,51.136231,4.478994,36.0,EU,BE,BE-VAN,Lint,no,EBLT,,,,,
323973,BE-0011,heliport,Neerpelt/Tilburgs Heliport,51.240015,5.417956,,EU,BE,BE-VLI,Neerpelt,no,EBNP,,,,,
324445,BE-0012,balloonport,Céroux-Mousty Balloon Field,50.660241,4.513276,,EU,BE,BE-WBR,Céroux-Mousty,no,,,,http://www.europeanballoon.be/fr/site-decollage-place-ceroux-mousty.html,,
30977,BE-0013,closed,Orchimont Ultralight Airfield,49.90643,4.93413,1312.0,EU,BE,BE-WNA,Vresse-sur-Semois,no,,,,,,EBOR
337610,BE-0014,heliport,Ichtegem Heliport,51.062009,3.030462,66.0,EU,BE,BE-VWV,Ichtegem,no,EBWV,,,,,
337615,BE-0015,heliport,Lochristi Heliport,51.084131,3.838701,20.0,EU,BE,BE-VOV,Lochristi,no,EBLO,,,,,
514093,BE-0016,closed,Walem Heliport,51.0703,4.44653,10.0,EU,BE,BE-VAN,Mechelen,no,,,,,,EBMW
342113,BE-0017,heliport,Montegnee / CHC Heliport,50.640702,5.533148,571.0,EU,BE,BE-WLG,,no,EBCH,,,,,
514315,BE-0018,heliport,Mont-Godinne University Hospital Heliport,50.35869,4.884487,551.0,EU,BE,BE-WNA,Yvoir,no,,,,,,
429993,BE-0019,heliport,Queen Astrid Military Hospital Heliport,50.90527,4.38936,209.0,EU,BE,BE-BRU,Brussels,no,,,,,,
514316,BE-0020,heliport,Delta General Hospital Rumbeke Campus Heliport,50.91723,3.16542,59.0,EU,BE,BE-VWV,Roeselare,no,,,,,,AZ Delta
514419,BE-0021,heliport,Camp King Albert Heliport,50.240628,5.366017,727.0,EU,BE,BE-WLX,Marche-en-Famenne,no,,,,,,
514827,BE-0022,heliport,Sankt Nikolaus Hospital Heliport,50.62952,6.02817,902.0,EU,BE,BE-WLG,Eupen,no,,,,,,
515404,BE-0023,heliport,Queen Astrid Malmedy Hospital Heliport,50.42694,6.02379,1086.0,EU,BE,BE-WLG,Malmedy,no,,,,,,
515475,BE-0024,heliport,Duffel Fire Station Heliport,51.10271,4.49139,30.0,EU,BE,BE-VAN,Duffel,no,,,,,,
515476,BE-0025,heliport,Arlon Hospital Heliport,49.67729,5.81996,1301.0,EU,BE,BE-WLX,Arlon,no,,,,,,
515477,BE-0026,heliport,Federal Road Police Brecht Heliport,51.35213,4.63124,72.0,EU,BE,BE-VAN,Brecht,no,,,,,,
515478,BE-0027,heliport,Federal Road Police West Flanders Jabbeke Heliport,51.19372,3.06436,3.0,EU,BE,BE-VWV,Jabbeke,no,,,,,,
515479,BE-0028,heliport,Federal Road Police East Flanders Wetteren Heliport,50.973,3.84096,92.0,EU,BE,BE-VOV,Wetteren,no,,,,,,
515515,BE-0029,closed,Ardenne Hospital Heliport,49.92489,5.37936,1647.0,EU,BE,BE-WLX,Libramont-Chevigny,no,,,,,,
515516,BE-0030,heliport,Camp Général Bastin Heliport,49.6814,5.77854,1270.0,EU,BE,BE-WLX,Arlon,no,,,,,,
515522,BE-0031,closed,Delta General Hospital Torhout Heliport,51.07013,3.09414,69.0,EU,BE,BE-VWV,Torhout,no,,,,,,
515523,BE-0032,heliport,Pont d'Oye Heliport,49.73447,5.672,1262.0,EU,BE,BE-WLX,Habay,no,,,,,,
515525,BE-0033,heliport,Federal Road Police Antwerp Heliport,51.20284,4.37927,25.0,EU,BE,BE-VAN,Antwerp,no,,,,,,
515526,BE-0034,heliport,Federal Police Ghent Heliport,51.06756,3.6941,26.0,EU,BE,BE-VOV,Ghent,no,,,,,,
515529,BE-0035,heliport,Sint-Elisabeth General Hospital Zottegem Heliport,50.8629,3.81877,246.0,EU,BE,BE-VOV,Zottegem,no,,,,,,
515531,BE-0036,heliport,Federal Road Police Antwerp Turnhout Heliport,51.29609,4.91018,62.0,EU,BE,BE-VAN,Turnhout,no,,,,,,
515532,BE-0037,small_airport,Federal Road Police Hainaut Péruwelz Heliport,50.53108,3.60476,151.0,EU,BE,BE-WHT,Péruwelz,no,,,,,,
515533,BE-0038,heliport,Federal Road Police Antwerp Grobbendonk Heliport,51.17411,4.75769,33.0,EU,BE,BE-VAN,Grobbendonk,no,,,,,,
515905,BE-0039,heliport,Jessa Hospital Salvator Campus Heliport,50.90931,5.34324,175.0,EU,BE,BE-VLI,Hasselt,no,,,,,,
517154,BE-0040,heliport,Dynali Factory Heliport,50.575412,4.358062,518.0,EU,BE,BE-WBR,Nivelles,no,,,,https:/https://www.dynali.com//www.dynali.com/,https://en.wikipedia.org/wiki/Dynali,
337381,EBAG,heliport,Grâce-Hollogne Agusta Heliport,50.640081,5.457585,590.0,EU,BE,BE-WLG,Grâce-Hollogne,no,EBAG,,,,,
43724,EBAK,closed,Kiel Heliport,51.20007,4.358938,10.0,EU,BE,BE-VAN,Antwerpen,no,,,,,,EBAK
298604,EBAL,heliport,Aalst Hospital Helistrip,50.943087,4.055763,141.0,EU,BE,BE-VOV,Aalst,no,,,,,,OLV-Ziekenhuis
29029,EBAM,small_airport,Amougies Airfield,50.740101,3.4849,49.0,EU,BE,BE-WHT,Mont-de-l'Enclus,no,EBAM,,,http://www.airport-amougies.com/,https://en.wikipedia.org/wiki/Amougies_Airfield,Aérodrome d'Amougies
30962,EBAR,small_airport,Arlon-Sterpenich Ultralight Airfield,49.661981,5.885953,1138.0,EU,BE,BE-WLX,Arlon,no,EBAR,,,http://www.arelair.be,https://en.wikipedia.org/wiki/Arlon-Sterpenich_Aerodrome,
43726,EBAS,heliport,Gravenwezel Heliport,51.247065,4.54272,20.0,EU,BE,BE-VAN,Schilde,no,EBAS,,,,,
43743,EBAT,closed,Meldert Heliport,50.92683,4.112962,131.0,EU,BE,BE-VOV,Aalst,no,,,,,,"EBAT, EBAT"
30963,EBAV,small_airport,Avernas-le-Bauduin Ultralight Airfield,50.70534,5.06633,394.0,EU,BE,BE-WLG,Hannut,no,EBAV,,,,https://en.wikipedia.org/wiki/Avernas-le-Bauduin_Airfield,Aéroclub de Hesbaye
2152,EBAW,medium_airport,Antwerp International Airport (Deurne),51.190667,4.463153,39.0,EU,BE,BE-VAN,Antwerp,yes,EBAW,ANR,,http://www.antwerp-airport.be/,https://en.wikipedia.org/wiki/Antwerp_International_Airport,
29030,EBBA,heliport,Baudour Heliport,50.469514,3.838767,98.0,EU,BE,BE-WHT,Douvrain,no,EBBA,,,,https://en.wikipedia.org/wiki/Baudour_Heliport,
43725,EBBC,closed,Luyckx Heliport,51.305171,4.629729,99.0,EU,BE,BE-VAN,Brecht,no,,,,,,EBBC
2153,EBBE,medium_airport,Beauvechain Air Base,50.758598,4.76833,370.0,EU,BE,BE-WBR,Beauvechain,no,EBBE,,,,https://en.wikipedia.org/wiki/Beauvechain_Air_Base,Le Culot
30964,EBBG,closed,Michamps Ulmodrome,50.0527992249,5.79861021042,1770.0,EU,BE,BE-WLX,Bastogne,no,,,,,,"EBBG, EBBG"
43723,EBBH,heliport,Keysers Heliport,51.343549,4.621927,82.0,EU,BE,BE-VAN,Brecht,no,EBBH,,,,,
2154,EBBL,medium_airport,Kleine Brogel Air Base,51.168301,5.47,200.0,EU,BE,BE-VLI,Kleine Brogel,no,EBBL,,,,https://en.wikipedia.org/wiki/Kleine_Brogel_Air_Base,
323793,EBBM,heliport,Michelbeke Heliport,50.830885,3.774096,,EU,BE,BE-VOV,Brakel,no,EBBM,,,,,
30965,EBBN,small_airport,Büllingen Airfield,50.415001,6.27639,2067.0,EU,BE,BE-WLG,Büllingen,no,EBBN,,,http://www.feuervogel.be/,https://en.wikipedia.org/wiki/B%C3%BCllingen_Airfield,Büllingen ULM
30966,EBBO,closed,Mogimont Ultralight Airfield,49.866402,5.06806,1394.0,EU,BE,BE-WLX,Bouillon,no,,,,,https://en.wikipedia.org/wiki/Mogimont_Airport,EBBO
2155,EBBR,large_airport,Brussels Airport,50.901402,4.48444,175.0,EU,BE,BE-VBR,Zaventem,yes,EBBR,BRU,,http://www.brusselsairport.be/en/,https://en.wikipedia.org/wiki/Brussels_Airport,"Brussels National, Zaventem, EBMB"
29031,EBBT,small_airport,Brasschaat Airfield,51.34259,4.503451,76.0,EU,BE,BE-VAN,Brasschaat,no,EBBT,,,http://www.aeroclub-brasschaat.be/,https://en.wikipedia.org/wiki/Brasschaat_Airfield,
30967,EBBW,closed,Bassenge-Wonck Ultralight Airfield,50.778301,5.61667,367.0,EU,BE,BE-WLG,Bassenge,no,,,,,,EBBW
2156,EBBX,small_airport,Jehonville Air Base,49.891483,5.227405,1514.0,EU,BE,BE-WLX,Bertrix,no,EBBX,,,,https://en.wikipedia.org/wiki/Jehonville_Air_Base,
43748,EBBY,small_airport,Baisy-Thy Ultralight Airfield,50.568611,4.434722,525.0,EU,BE,BE-WBR,Genappe,no,EBBY,,,http://www.ulm.be/,,ULM Baisy-Thy
43749,EBBZ,small_airport,Buzet Aerodrome,50.542335,4.382472,522.0,EU,BE,BE-WHT,Pont-à-Celles,no,EBBZ,,,http://www.confluence.be,https://fr.wikipedia.org/wiki/A%C3%A9rodrome_de_Pont-%C3%A0-Celles_Buzet,"Aérodrome de Pont-à-Celles Buzet, Pont-à-Celles Buzet Airfield, Base ULM de Pont-à-Celles Buzet, Base ULM de Buzet"
29771,EBCF,small_airport,Cerfontaine Airfield,50.152802,4.38722,955.0,EU,BE,BE-WNA,Cerfontaine,no,EBCF,,,https://www.cerfontaine-aerodrome.com/,https://en.wikipedia.org/wiki/Cerfontaine_Airfield,
300107,EBCH,closed,Casteau / SHAPE Helipad,50.503056,3.982501,287.0,EU,BE,BE-WHT,Mons,no,,,,,,"Supreme Headquarters Allied Powers Europe, NATO, EBCT"
2157,EBCI,medium_airport,Brussels South Charleroi Airport,50.460982,4.457158,614.0,EU,BE,BE-WHT,Charleroi,yes,EBCI,CRL,,http://www.charleroi-airport.com/doc.php?nd=o29&tid=29&lg=2&docid=1&site=1,https://en.wikipedia.org/wiki/Brussels_South_Charleroi_Airport,Gosselies Airport
43761,EBCR,closed,Chimay-Ronvaux Ultralight Airfield,50.247223,5.113889,1076.0,EU,BE,BE-WNA,Ciney,no,,,,,,"EBCR, Chimay-Ronvaux Ulmodrome"
30968,EBCS,closed,Saint-Remy Ultralight Airfield,50.0583,4.28194,820.0,EU,BE,BE-WHT,Chimay,no,,,,,,EBCS
2158,EBCV,medium_airport,Chièvres Air Base,50.575801849365234,3.8310000896453857,194.0,EU,BE,BE-WHT,Chièvres,no,EBCV,,,,https://en.wikipedia.org/wiki/Chievres_Air_Base,
29032,EBDI,heliport,Diksmuide Heliport,51.019276,2.858205,13.0,EU,BE,BE-VWV,Diksmuide,no,EBDI,,,,https://en.wikipedia.org/wiki/Diksmuide_Heliport,
43738,EBDL,closed,Lanklaar Heliport,51.017463,5.69981,131.0,EU,BE,BE-VLI,Dilsen-Stokkem,no,,,,,,EBDL
323797,EBDR,heliport,Antwerp/Commandant Fourcault Heliport,51.239556,4.407915,,EU,BE,BE-VAN,Antwerp,no,EBDR,,,,,
30969,EBDT,small_airport,Schaffen Airfield,51.004032,5.064697,100.0,EU,BE,BE-VBR,Diest,no,EBDT,,,,https://en.wikipedia.org/wiki/Schaffen_Air_Base,
43734,EBDW,closed,Webbekom Heliport,50.958132,5.064743,130.0,EU,BE,BE-VBR,Diest,no,,,,,,"Paramount, EBDW"
337294,EBDZ,heliport,Deinze - De Groote,50.963801,3.542682,36.0,EU,BE,BE-VOV,Deinze,no,EBDZ,,,,,
337302,EBEA,heliport,Alma General Hospital Heliport,51.191152,3.534476,24.0,EU,BE,BE-VOV,Eeklo,no,EBEA,,,,,
324056,EBEB,heliport,Belzele Heliport,51.100833,3.653611,27.0,EU,BE,BE-VOV,Evergem,no,EBEB,,,,,
324980,EBEH,seaplane_base,Eau d'Heure Seaplane Base,50.183611,4.369722,810.0,EU,BE,BE-WNA,Froidchapelle,no,EBEH,,,http://www.seaplane.be,,Hydrobase de l'Eau d'Heure
43721,EBEN,heliport,Engels Heliport,51.211858,4.581093,33.0,EU,BE,BE-VAN,Ranst,no,EBEN,,,,,
43727,EBEU,heliport,Antwerp University Hospital Heliport,51.155894,4.409841,46.0,EU,BE,BE-VAN,Edegem,no,EBEU,,,,,UZA
43760,EBFD,closed,Dompire Heliport,50.550835,4.996389,607.0,EU,BE,BE-WNA,Fernelmont,no,,,,,,EBFD
2159,EBFN,medium_airport,Koksijde Air Base,51.090302,2.65278,20.0,EU,BE,BE-VWV,Koksijde,no,EBFN,,,,https://en.wikipedia.org/wiki/Koksijde_Air_Base,Coxyde
43756,EBFR,heliport,Francorchamps Heliport,50.456121,5.953796,1575.0,EU,BE,BE-WLG,Stavelot,no,EBFR,,,,,
2160,EBFS,medium_airport,Florennes Air Base,50.2433013916,4.64583015442,935.0,EU,BE,BE-WNA,Florennes,no,EBFS,,,,https://en.wikipedia.org/wiki/Florennes_Air_Base,
323958,EBGA,heliport,UZ Leuven Hospital Heliport,50.877291,4.672821,,EU,BE,BE-VBR,Leuven,no,EBGA,,,,,
28478,EBGB,small_airport,Grimbergen Airfield,50.948546,4.39181,70.0,EU,BE,BE-VBR,Grimbergen,no,EBGB,,,,https://en.wikipedia.org/wiki/Grimbergen_Airfield,
323959,EBGE,heliport,Gervinnes Heliport,50.375769,4.486277,633.0,EU,BE,BE-WHT,Loverval,no,EBGE,,,,,"Charleroi Grand Hospital IMTR Heliport, Grand Hôpital de Charleroi (GHDC Asbl) Heliport"
29033,EBGG,small_airport,Overboelare Airfield,50.7556,3.86389,56.0,EU,BE,BE-VOV,Geraardsbergen,no,EBGG,,,,https://en.wikipedia.org/wiki/Overboelare_Airfield,
308567,EBGL,closed,CRC Glons Heliport,50.73973,5.5421,438.0,EU,BE,BE-WLG,Bassenge,no,,,,,,"EBGL, EBGL"
29034,EBGT,heliport,Ghent/Industry Zone Heliport,51.020551,3.730341,26.0,EU,BE,BE-VOV,Gent,no,EBGT,GNE,,,https://en.wikipedia.org/wiki/Ghent/Industry_Zone_Heliport,
342118,EBGU,heliport,Nevele Heliport,51.046686,3.520469,26.0,EU,BE,BE-VOV,Deinze,no,EBGU,,,,,
43736,EBHA,heliport,Ham Heliport,51.079179,5.108932,98.0,EU,BE,BE-VLI,Ham,no,EBHA,,,,,
30970,EBHE,closed,Héron-Couthuin Ultralight Airfield,50.538898,5.10917,607.0,EU,BE,BE-WLG,Héron,no,,,,,,EBHE
337611,EBHF,heliport,Kallo - De Perel Heliport,51.268889,4.295833,30.0,EU,BE,BE-VOV,Beveren,no,EBHF,,,,,
43735,EBHL,heliport,Halen Heliport,50.930274,5.080558,121.0,EU,BE,BE-VLI,Halen,no,EBHL,,,,,
43740,EBHM,heliport,Maasland Heliport,50.909815,5.349017,164.0,EU,BE,BE-VLI,Hasselt,no,EBHM,,,,,
29954,EBHN,small_airport,Hoevenen Airfield,51.306098938,4.387219905849999,10.0,EU,BE,BE-VAN,Hoevenen,no,EBHN,,,,https://en.wikipedia.org/wiki/Hoevenen_Airfield,
43730,EBHO,heliport,Holsbeek heliport,50.919676,4.768925,82.0,EU,BE,BE-VBR,Holsbeek,no,EBHO,,,,,
337583,EBHS,heliport,Stevoort Heliport,50.923472,5.234433,66.0,EU,BE,BE-VLI,Hasselt,no,EBHS,,,,,
43737,EBHT,heliport,Houthalen Heliport,51.01415,5.3593,164.0,EU,BE,BE-VLI,Houthalen-Helchteren,no,EBHT,,,,,
29035,EBIS,small_airport,Ath/Isieres Airfield,50.663636,3.804681,98.0,EU,BE,BE-WHT,Isieres,no,EBIS,,,,https://en.wikipedia.org/wiki/Ath/Isi%C3%A8res_Airfield,Ath/Isieres Ulmodrome
337032,EBJS,heliport,Ath-Ghislenghien Heliport,50.666658,3.870192,175.0,EU,BE,BE-WHT,Ath,no,EBJS,,,,,
337614,EBKG,heliport,Kortrijk - AZ Groeninge Helipad,50.802873,3.264039,66.0,EU,BE,BE-VWV,Kortrijk,no,EBKG,,,,,
29036,EBKH,small_airport,Balen-Keiheuvel Airfield,51.180957,5.221124,131.0,EU,BE,BE-VAN,Balen,no,EBKH,,,http://www.aeroclub-keiheuvel.be/,https://en.wikipedia.org/wiki/Balen-Keiheuvel_Aerodrome,
324055,EBKR,heliport,Kruishoutem / SONS Heliport,50.891528,3.500812,198.0,EU,BE,BE-VOV,Kruishoutem,no,EBKR,,,,,
2161,EBKT,medium_airport,Flanders International Airport Kortrijk-Wevelgem,50.818878,3.209551,55.0,EU,BE,BE-VWV,Wevelgem,no,EBKT,KJK,,http://www.kortrijkairport.be,https://en.wikipedia.org/wiki/Flanders_International_Airport,"Kortrijk, Courtrai"
29037,EBKU,closed,Kuurne Heliport,50.85842,3.255642,47.0,EU,BE,BE-VWV,Kuurne,no,,,,,,EBKU
29038,EBKW,heliport,Westkapelle Heliport,51.321655,3.294568,10.0,EU,BE,BE-VWV,Knokke-Heist,no,EBKW,,,,https://en.wikipedia.org/wiki/Knokke-Heist/Westkapelle_Heliport,
337612,EBKZ,heliport,Zeno General Hospital Knokke-Heist Campus Heliport,51.328685,3.292388,13.0,EU,BE,BE-VWV,Knokke-Heist,no,EBKZ,,,,,AZ Zeno Campus Knokke-Heist
30971,EBLB,closed,Elsenborn Air Base,50.484489,6.183157,1830.0,EU,BE,BE-WLG,Bütgenbach,no,,,,,,EBLB
43755,EBLC,heliport,Citadelle Heliport,50.653392,5.57765,531.0,EU,BE,BE-WLG,Liège,no,EBLC,,,,,
342173,EBLD,heliport,De Vijver Heliport,51.217163,4.557801,33.0,EU,BE,BE-VAN,Ranst,no,EBLD,,,,,
30068,EBLE,small_airport,Leopoldsburg Airfield,51.12,5.3072222,207.0,EU,BE,BE-VLI,Leopoldsburg,no,EBLE,,,http://www.eble.be/,https://en.wikipedia.org/wiki/Aeroclub_Sanicole_VZW,Beverlo
2162,EBLG,medium_airport,Liège Airport,50.638574,5.443897,659.0,EU,BE,BE-WLG,Grâce-Hollogne,yes,EBLG,LGG,,http://www.liegeairport.be/,https://en.wikipedia.org/wiki/Li%C3%A8ge_Airport,Bierset
337617,EBLH,heliport,Lotenhulle Heliport,51.033333,3.496389,43.0,EU,BE,BE-VOV,Aalter,no,EBLH,,,,,
30972,EBLI,closed,Lierneux Microlight,50.286701,5.83639,1411.0,EU,BE,BE-WLG,Lierneux,no,,,,,,EBLI
342090,EBLJ,heliport,Janssens Heliport,51.095563,3.91835,3.0,EU,BE,BE-VOV,Lokeren,no,EBLJ,,,,,
323968,EBLM,heliport,Meulebeke Heliport,50.931667,3.293889,,EU,BE,BE-VWV,Meulebeke,no,EBLM,,,,,
30973,EBLN,closed,Liernu Ultralight Airfield,50.579514,4.79153,564.0,EU,BE,BE-WNA,Eghezée,no,,,,,https://en.wikipedia.org/wiki/Liernu_Airfield,EBLN
43757,EBLO,heliport,Orban heliport,50.630727,5.571717,160.0,EU,BE,BE-WLG,Liège,no,,,,,,EBLO
29039,EBLR,heliport,Reninge Heliport,50.934886,2.757944,25.0,EU,BE,BE-VWV,Lo-Reninge,no,EBLR,,,,https://en.wikipedia.org/wiki/Reninge_Heliport,
43759,EBLS,heliport,Sart Tilman Heliport,50.571148,5.565253,771.0,EU,BE,BE-WLG,Liège,no,EBLS,,,,,
43739,EBLU,heliport,Lummen Heliport,50.991941,5.23903,141.0,EU,BE,BE-VLI,Lummen,no,EBLU,,,,,
337613,EBLV,closed,Kortemark Heliport,51.007703,3.045058,66.0,EU,BE,BE-VWV,Kortemark,no,,,,,,"EBLV, EBLV"
323970,EBLY,heliport,Lymar Heliport,51.210662,4.576811,33.0,EU,BE,BE-VAN,Ranst,no,EBLY,,,,,
29040,EBLZ,closed,Zaffelare Heliport,51.130384,3.864098,26.0,EU,BE,BE-VOV,Lochristi,no,,,,,,"EBLZ, Saffelaere"
43729,EBMA,closed,Westmalle Heliport,51.287224,4.714167,88.0,EU,BE,BE-VAN,Malle,no,,,,,,EBMA
308575,EBMB,small_airport,Melsbroek Air Base,50.913419,4.491005,184.0,EU,BE,BE-VBR,Steenokkerzeel,no,EBMB,,,http://www.opendoor15w.be/,https://en.wikipedia.org/wiki/Melsbroek_Air_Base,
43720,EBMD,heliport,ZNA Middelheim Hospital Heliport,51.181674,4.421096,46.0,EU,BE,BE-VAN,Antwerp,no,EBMD,,,,,
43731,EBME,heliport,Meerbeek Heliport,50.873724,4.596911,214.0,EU,BE,BE-VBR,Meerbeek,no,EBME,,,,,
30974,EBMG,small_airport,Matagne-la-Petite Ultralight Airfield,50.104208,4.636063,787.0,EU,BE,BE-WNA,Doische,no,EBMG,,,,,"Matagne, Matagne-la-Petite Ulmodrome"
337618,EBMK,heliport,Maarkedal - Nukerke Heliport,50.781947,3.619635,167.0,EU,BE,BE-VOV,Maarkedal,no,EBMK,,,,,
30975,EBML,small_airport,Maillen Ultralight Airfield,50.375033,4.926489,886.0,EU,BE,BE-WNA,Assesse,no,EBML,,,,https://en.wikipedia.org/wiki/Maillen_Airfield,Maillen Ulmodrome
337619,EBMM,heliport,Maasmechelen Heliport,50.953841,5.704801,131.0,EU,BE,BE-VLI,Maasmechelen,no,EBMM,,,,,
29042,EBMO,small_airport,Moorsele Airfield,50.851285,3.147669,66.0,EU,BE,BE-VWV,Wevelgem,no,EBMO,,,,https://en.wikipedia.org/wiki/Moorsele_Airfield,
43754,EBMS,heliport,Bra heliport,50.321703,5.730894,1280.0,EU,BE,BE-WLG,Lierneu,no,EBMS,,,,,
43751,EBMT,heliport,Montigny-le-Tilleul Heliport,50.358515,4.368455,656.0,EU,BE,BE-WHT,Montigny-le-Tilleul,no,EBMT,,,,,André Vésale Hospital Heliport
323971,EBMW,heliport,Meise/Wolvertem Heliport,50.948076,4.296012,,EU,BE,BE-VBR,Meise,no,EBMW,,,,,
342117,EBNB,heliport,Namur Bouge Heliport,50.479007,4.885021,489.0,EU,BE,BE-WNA,Namur,no,EBNB,,,,,
43741,EBNE,closed,Neerpelt Ultralight Airfield,51.211945,5.478611,148.0,EU,BE,BE-VLI,Neerpelt,no,,,,,,EBNE
43746,EBNH,heliport,Oostende Heliport,51.194097,2.854192,13.0,EU,BE,BE-VWV,Oostende,no,EBNH,,,,,
323972,EBNK,heliport,Nokere/Suys Heliport,50.879358,3.520104,,EU,BE,BE-VOV,Nokere,no,EBNK,,,,,
324063,EBNL,heliport,Nijlen Heliport,51.174,4.665874,21.0,EU,BE,BE-VAN,Nijlen,no,EBNL,,,,,
29043,EBNM,small_airport,Namur-Suarlée Airfield,50.489705,4.769697,594.0,EU,BE,BE-WNA,Namur,no,EBNM,,,http://www.aerodromedenamur.be/,https://en.wikipedia.org/wiki/Namur-Suarlee_Airport,
29044,EBNO,closed,Outer ULM,50.854401,3.98528,151.0,EU,BE,BE-VOV,Ninove,no,,,,,,"EBNO, Outer ULM"
342176,EBNR,heliport,Nuytten Heliport,50.910735,3.103623,82.0,EU,BE,BE-VWV,Roeselare,no,EBNR,,,,,
323974,EBOB,heliport,Blanden Heliport,50.822622,4.708992,,EU,BE,BE-VBR,Oud-Heverlee,no,EBOB,,,,,
337035,EBOK,heliport,Brussels - Groot-Bijgaarden Heliport,50.869522,4.280602,121.0,EU,BE,BE-BRU,Dilbeek,no,EBOK,,,,,
29045,EBOO,heliport,Oostdijckbank Platform Heliport,51.274445,2.4475,69.0,EU,BE,BE-VWV,De Panne,no,EBOO,,,,https://events.scia.net/UC-pdf/Oranjewoud-Oostdijckbank.pdf,
2163,EBOS,medium_airport,Oostende-Brugge International Airport,51.1998,2.874673,13.0,EU,BE,BE-VWV,Oostende,yes,EBOS,OST,,http://www.ost.aero/,https://en.wikipedia.org/wiki/Ostend-Bruges_International_Airport,Ostend-Bruges International Airport
311995,EBOT,closed,Oud-Turnhout Airfield,51.321566,5.012685,,EU,BE,BE-VAN,Oud-Turnhout,no,,,,,,EBOT
337300,EBPP,heliport,Deinze - Piens Heliport,50.995,3.528889,30.0,EU,BE,BE-VOV,Deinze,no,EBPP,,,,,
342119,EBPV,heliport,Ninove Heliport,50.843238,4.037037,87.0,EU,BE,BE-VOV,Ninove,no,EBPV,,,,,
29046,EBPW,heliport,Warcoing heliport,50.722254,3.326106,120.0,EU,BE,BE-WHT,Pecq,no,EBPW,,,,,
43745,EBRB,closed,Beveren Heliport,50.981543,3.125873,84.0,EU,BE,BE-VWV,Roeselare,no,,,,,,"EBRB, EBRB"
342177,EBRD,heliport,Roosdaal Heliport,50.825505,4.096967,243.0,EU,BE,BE-VBR,Roosdaal,no,EBRD,,,,,
43728,EBRO,heliport,Van Den Bosch Heliport,51.209653,4.587697,33.0,EU,BE,BE-VAN,Ranst,no,EBRO,,,,,
43742,EBRR,heliport,Rumbeke Heliport,50.910005,3.148012,79.0,EU,BE,BE-VWV,Roeselare,no,EBRR,,,,,
337034,EBRU,heliport,Bekkevoort Heliport,50.957481,5.015771,100.0,EU,BE,BE-VBR,Bekkevoort,no,EBRU,,,,,
29047,EBSG,small_airport,Saint-Ghislain Airfield,50.458009,3.821,75.0,EU,BE,BE-WHT,Saint Ghislain,no,EBSG,,,https://ebsg.aero/fr,https://en.wikipedia.org/wiki/Saint-Ghislain_Airfield,
29048,EBSH,small_airport,Saint Hubert Airfield,50.0359,5.40425,1930.0,EU,BE,BE-WLX,Saint Hubert,no,EBSH,,,http://www.sainthubert-airport.com/,https://en.wikipedia.org/wiki/Saint-Hubert_Airfield,
29049,EBSJ,heliport,Sint-Jan General Hospital Heliport,51.220486,3.196068,20.0,EU,BE,BE-VWV,Brugge,no,EBSJ,,,,,"AZ Sint-Jan, Bruges"
2164,EBSL,small_airport,Zutendaal Air Base,50.947498,5.59056,312.0,EU,BE,BE-VLI,Zutendaal,no,EBSL,,,,https://en.wikipedia.org/wiki/Zutendaal_Air_Base,
525291,EBSM,small_airport,Verrebroek Private Airstrip,51.268281,4.175453,10.0,EU,BE,BE-U-A,,no,EBSM,,,,,
43758,EBSN,closed,'S Gravenvoeren Heliport,50.764771,5.786845,394.0,EU,BE,BE-WLG,'S Gravenvoeren,no,,,,,,EBSN
29050,EBSP,small_airport,Spa-La Sauvenière Airfield,50.482006,5.913434,1581.0,EU,BE,BE-WLG,Spa,no,EBSP,,,,https://en.wikipedia.org/wiki/Spa-La_Sauveni%C3%A8re_Airfield,
29051,EBSS,heliport,Sint-Lucas General Hospital Heliport,51.183906,3.24999,16.0,EU,BE,BE-VWV,Brugge,no,EBSS,,,,https://en.wikipedia.org/wiki/Sint-Lucas_Hospital_Heliport,"AZ Sint-Lucas, Bruges"
2165,EBST,small_airport,Sint-Truiden / Brustem Airfield,50.790772,5.19958,246.0,EU,BE,BE-VLI,Sint-Truiden,no,EBST,,,http://www.ebst.aero/,https://en.wikipedia.org/wiki/Sint-Truiden_/_Brustem_Airfield,Brustem Air Base
2166,EBSU,small_airport,Saint Hubert Air Base,50.034401,5.44081,1930.0,EU,BE,BE-WLX,Saint Hubert,no,EBSU,,,,https://en.wikipedia.org/wiki/Saint-Hubert_Air_Base,
43733,EBSW,heliport,Sint-Pieters-Leeuw Heliport,50.763845,4.218782,197.0,EU,BE,BE-VBR,Sint-Pieters-Leeuw,no,EBSW,,,,,
43744,EBTE,closed,Temse Heliport,51.141666,4.197222,30.0,EU,BE,BE-VOV,Temse,no,,,,,,EBTE
43722,EBTK,heliport,Kasterlee Heliport,51.283697,4.912072,80.0,EU,BE,BE-VAN,Tielen,no,EBTK,,,,,
29899,EBTN,small_airport,Goetsenhoven Airfield,50.7817,4.95778,246.0,EU,BE,BE-VBR,Tienen,no,EBTN,,,,https://en.wikipedia.org/wiki/Goetsenhoven_Airfield,
43752,EBTR,closed,Trazegnies Heliport,50.476665,4.355556,574.0,EU,BE,BE-WHT,Courcelles,no,,,,,,EBTR
29052,EBTX,small_airport,Theux (Verviers) Airfield,50.551099,5.853996,1099.0,EU,BE,BE-WLG,Verviers,no,EBTX,,,http://www.verviers-aviation.be/,https://en.wikipedia.org/wiki/Verviers-Theux_Airfield,
29053,EBTY,small_airport,Maubray Airfield,50.531639,3.496185,161.0,EU,BE,BE-WHT,Péruwelz,no,EBTY,,,,https://en.wikipedia.org/wiki/Maubray_Airfield,"Aérodrome de Maubray, Aérodrome de Tournai-Maubray, Royal Tournai Air Club"
43719,EBUB,closed,ULB Heliport,50.811847,4.260989,108.0,EU,BE,BE-BRU,Brussels,no,,,,,,"EBUB, Université Libre de Bruxelles"
43718,EBUC,heliport,UCLouvain / Saint-Luc University Clinics Heliport,50.853063,4.453561,230.0,EU,BE,BE-BRU,Woluwe-Saint-Lambert,no,EBUC,,,,,
2167,EBUL,small_airport,Ursel Air Base,51.144199,3.47556,95.0,EU,BE,BE-VOV,Ursel,no,EBUL,,,,https://en.wikipedia.org/wiki/Ursel_Air_Base,
29054,EBVE,heliport,Veurne Heliport,51.02264,2.680374,82.0,EU,BE,BE-VWV,Veurne,no,EBVE,,,,https://en.wikipedia.org/wiki/Oeren_Heliport,Liège-Bierset
324064,EBVN,heliport,Vlimmeren Heliport,51.306493,4.806617,76.0,EU,BE,BE-VAN,Vlimmeren,no,EBVN,,,,,
29055,EBVS,heliport,Sint-Augustinus Heliport,51.062298,2.669222,13.0,EU,BE,BE-VWV,Veurne,no,EBVS,,,,https://en.wikipedia.org/wiki/Veurne/Sint-Augustinus_Heliport,
43732,EBVU,heliport,Rotselaar Heliport,50.939257,4.730574,30.0,EU,BE,BE-VBR,Rotselaar,no,EBVU,,,,,
323975,EBWA,heliport,Waasmunster Heliport,51.122683,4.127796,,EU,BE,BE-VOV,Waasmunster,no,EBWA,,,,,
2168,EBWE,small_airport,Weelde Air Base,51.394798,4.96019,105.0,EU,BE,BE-VAN,Weelde,no,EBWE,,,,https://en.wikipedia.org/wiki/Weelde_Air_Base,
323977,EBWI,heliport,Wingene Heliport,51.064415,3.25919,,EU,BE,BE-VWV,Wingene,no,EBWI,,,,,
323978,EBWZ,heliport,Wingene/Zwevezele Heliport,51.052033,3.238951,,EU,BE,BE-VWV,Wingene,no,EBWZ,,,,,
337581,EBYC,heliport,Grembergen Heliport,51.057744,4.097527,62.0,EU,BE,BE-VOV,Dendermonde,no,EBYC,,,,,
323979,EBYP,heliport,Jan Yperman Regional Hospital Heliport,50.863486,2.896702,56.0,EU,BE,BE-VWV,Ieper - Ypres,no,EBYP,,,,,Helihaven Regionaal Ziekenhuis Jan Yperman
29056,EBZH,small_airport,Kiewit Airfield Hasselt,50.970001,5.37507,141.0,EU,BE,BE-VLI,Hasselt,no,EBZH,,,http://www.aero-kiewit.be/,https://en.wikipedia.org/wiki/Kiewit_airfield,
29057,EBZI,heliport,Zingem heliport,50.926388,3.617222,30.0,EU,BE,BE-VOV,Zingem,no,EBZI,,,,https://en.wikipedia.org/wiki/Zingem_Heliport,
30586,EBZM,closed,Oombergen Airfield,50.909401,3.82667,240.0,EU,BE,BE-VOV,Zottegem,no,,,,,,"EBZM, EBZM"
43747,EBZO,heliport,Zandvoorde Heliport,50.817249,2.97457,102.0,EU,BE,BE-VWV,Zonnebeke,no,EBZO,,,,,
2169,EBZR,small_airport,Oostmalle Airfield,51.269092,4.762428,53.0,EU,BE,BE-VAN,Zoersel,no,EBZR,OBL,,http://www.ebzr.be/,https://en.wikipedia.org/wiki/Oostmalle_Airfield,Malle Airfield
29058,EBZU,small_airport,Zuienkerke Sport Aviation Airfield,51.25555,3.139858,16.0,EU,BE,BE-VWV,Zuienkerke,no,EBZU,,,http://www.ebzu-airfield.be/,https://en.wikipedia.org/wiki/Zuienkerke_Airfield,Zuienkerke ULM
29059,EBZW,small_airport,Genk Zwartberg Airfield,51.0154,5.52647,278.0,EU,BE,BE-VLI,Genk,no,EBZW,,,http://www.ebzw.be,https://en.wikipedia.org/wiki/Zwartberg_Airfield,
515482,EHRS,heliport,OSY-OS1ST Heliport,51.5825,2.86861,,EU,BE,BE-XX,,no,EHRS,,,,,
324058,EPLX,heliport,Lierneux Specialized Hospital Heliport,50.286813,5.78887,1411.0,EU,BE,BE-WLG,Lierneux,no,EBLX,,,,,Lierneux / Centre Hospitalier Spécial l'Accueil
332662,GNE,closed,Sint-Denijs-Westrem Airport,51.025956,3.688231,30.0,EU,BE,BE-VOV,Gent,no,,,,,https://nl.wikipedia.org/wiki/Vliegveld_Sint-Denijs-Westrem,"GNE, EBGT"
